{
    "links": {
        "self": "http://www.neowsapp.com/rest/v1/neo/54087845?api_key=iIulBulltgU6a56xZRHN4H3l9WmuAYTsLGpBGhQ2"
    },
    "id": "54087845",
    "neo_reference_id": "54087845",
    "name": "(2020 VS5)",
    "designation": "2020 VS5",
    "nasa_jpl_url": "http://ssd.jpl.nasa.gov/sbdb.cgi?sstr=54087845",
    "absolute_magnitude_h": 25.226,
    "estimated_diameter": {
        "kilometers": {
            "estimated_diameter_min": 0.0239527277,
            "estimated_diameter_max": 0.0535599273
        },
        "meters": {
            "estimated_diameter_min": 23.9527276585,
            "estimated_diameter_max": 53.5599272911
        },
        "miles": {
            "estimated_diameter_min": 0.0148835303,
            "estimated_diameter_max": 0.0332805856
        },
        "feet": {
            "estimated_diameter_min": 78.5850670113,
            "estimated_diameter_max": 175.7215518536
        }
    },
    "is_potentially_hazardous_asteroid": false,
    "close_approach_data": [
        {
            "close_approach_date": "2020-11-03",
            "close_approach_date_full": "2020-Nov-03 03:49",
            "epoch_date_close_approach": 1604375340000,
            "relative_velocity": {
                "kilometers_per_second": "15.3247047583",
                "kilometers_per_hour": "55168.9371299858",
                "miles_per_hour": "34279.832073907"
            },
            "miss_distance": {
                "astronomical": "0.0296837127",
                "lunar": "11.5469642403",
                "kilometers": "4440620.193611949",
                "miles": "2759273.4391009362"
            },
            "orbiting_body": "Earth"
        }
    ],
    "orbital_data": {
        "orbit_id": "2",
        "orbit_determination_date": "2020-11-25 05:21:35",
        "first_observation_date": "2020-11-14",
        "last_observation_date": "2020-11-16",
        "data_arc_in_days": 2,
        "observations_used": 19,
        "orbit_uncertainty": "9",
        "minimum_orbit_intersection": ".0105426",
        "jupiter_tisserand_invariant": "3.434",
        "epoch_osculation": "2459168.5",
        "eccentricity": ".6161922493828612",
        "semi_major_axis": "2.148016219220804",
        "inclination": "2.146332886790547",
        "ascending_node_longitude": "54.82273147070627",
        "orbital_period": "1149.885933571706",
        "perihelion_distance": ".8244252733882678",
        "perihelion_argument": "287.1368113121044",
        "aphelion_distance": "3.471607165053341",
        "perihelion_time": "2459117.407577450845",
        "mean_anomaly": "15.99573625582473",
        "mean_motion": ".3130745315596564",
        "equinox": "J2000",
        "orbit_class": {
            "orbit_class_type": "APO",
            "orbit_class_description": "Near-Earth asteroid orbits which cross the Earth’s orbit similar to that of 1862 Apollo",
            "orbit_class_range": "a (semi-major axis) > 1.0 AU; q (perihelion) < 1.017 AU"
        }
    },
    "is_sentry_object": false
}